EUTELSAT 16A            
1 37836U 11057A   25201.93169703  .00000103  00000+0  00000+0 0  9991
2 37836   0.0640  13.6570 0005357 106.7699 169.9115  1.00272711 50467
EUTELSAT 21B            
1 38992U 12062B   25201.92058715  .00000129  00000+0  00000+0 0  9999
2 38992   0.0666  13.3436 0002992 108.0358 170.5509  1.00273404 46501
EUTELSAT 70B            
1 39020U 12069A   25201.92629904 -.00000044  00000+0  00000+0 0  9990
2 39020   0.0627  16.2208 0003564 103.1399 223.5250  1.00271674 46180
EUTELSAT 117 WEST A     
1 39122U 13012A   25202.23908785 -.00000015  00000+0  00000+0 0  9992
2 39122   0.0098  16.6846 0002803 113.8185 137.9975  1.00271782 45140
EUTELSAT 7B             
1 39163U 13022A   25201.91373231  .00000047  00000+0  00000+0 0  9998
2 39163   0.0687 344.3012 0003033  62.3217 228.2288  1.00270280 44631
EXPRESS-AT1             
1 39612U 14010A   25202.42300370  .00000076  00000+0  00000+0 0  9998
2 39612   0.0226  51.6945 0000458 254.8986 201.1309  1.00272986 41738
EXPRESS-AT2             
1 39613U 14010B   25202.51919925 -.00000284  00000+0  00000+0 0  9993
2 39613   0.0170 307.2748 0000226  54.1677 264.8251  1.00271995 41561
EUTELSAT 3B             
1 39773U 14030A   25201.91295231  .00000019  00000+0  00000+0 0  9997
2 39773   0.0614  16.2183 0003854 114.7077 139.7424  1.00271857 40746
